STARLINK-35584          
1 66106U 25236W   25319.83335647 -.00023765  00000+0 -42058-3 0  9992
2 66106  53.1594 274.3721 0001737  92.4221 117.7650 15.49304215  5558
STARLINK-35593          
1 66107U 25236X   25319.83335647  .00048561  00000+0  87665-3 0  9995
2 66107  53.1594 274.3686 0001833  92.0828 120.0176 15.49279500  5553
STARLINK-35590          
1 66108U 25236Y   25319.83335647  .00042792  00000+0  77401-3 0  9993
2 66108  53.1594 274.3603 0001596  95.0459 120.8888 15.49280458  5497
STARLINK-35545          
1 66109U 25236Z   25319.83335647 -.00024730  00000+0 -43802-3 0  9996
2 66109  53.1593 274.3643 0001671  94.5547 119.4643 15.49305839  5558
STARLINK-35427          
1 66110U 25236AA  25319.83335647 -.00018781  00000+0 -33045-3 0  9995
2 66110  53.1593 274.3558 0001688  92.9268 124.9244 15.49305385  5559
STARLINK-35574          
1 66111U 25236AB  25319.83335647 -.00024214  00000+0 -42869-3 0  9998
2 66111  53.1592 274.3522 0001702  95.6472 124.1254 15.49304034  5490
STARLINK-35531          
1 66112U 25236AC  25319.83335647  .00054887  00000+0  98918-3 0  9992
2 66112  53.1591 274.3444 0001751  96.0954 127.5130 15.49274356  5557
STARLINK-35491          
1 66113U 25236AD  25319.83335647  .00050957  00000+0  91932-3 0  9996
2 66113  53.1593 274.3483 0001681  91.2824 130.4032 15.49277037  5551
STARLINK-35496          
1 66114U 25237A   25319.83335647 -.00080817  00000+0 -14587-2 0  9998
2 66114  53.1602 214.4090 0001249  93.7339 314.7123 15.49334622  5158
STARLINK-35428          
1 66115U 25237B   25319.83335647 -.02078633  00000+0 -50327-1 0  9995
2 66115  53.1604 214.4268 0000897 103.8240 295.8373 15.44153009  5159
STARLINK-35573          
1 66116U 25237C   25319.83335647 -.00070429  00000+0 -12685-2 0  9995
2 66116  53.1602 214.4015 0001261  91.8836 320.3957 15.49334283  5153
STARLINK-35572          
1 66117U 25237D   25319.83335647 -.02087512  00000+0 -46239-1 0  9990
2 66117  53.1602 214.3992 0000922 107.8800 305.5530 15.46742240  5154
