CCSDS_OMM_VERS = 2.0
CREATION_DATE  = 
ORIGINATOR     = 

OBJECT_NAME    = STARLINK-35584
OBJECT_ID      = 2025-236W
CENTER_NAME    = EARTH
REF_FRAME      = TEME
TIME_SYSTEM    = UTC
MEAN_ELEMENT_THEORY = SGP/SGP4

EPOCH          = 2025-11-15T20:00:01.999008
MEAN_MOTION    = 15.49304215
ECCENTRICITY   = .0001737
INCLINATION    = 53.1594
RA_OF_ASC_NODE = 274.3721
ARG_OF_PERICENTER = 92.4221
MEAN_ANOMALY   = 117.7650

EPHEMERIS_TYPE = 0
CLASSIFICATION_TYPE = U
NORAD_CAT_ID   = 66106
ELEMENT_SET_NO = 999
REV_AT_EPOCH   = 555
BSTAR          = -.42058E-3
MEAN_MOTION_DOT = -.23765E-3
MEAN_MOTION_DDOT = 0

CCSDS_OMM_VERS = 2.0
CREATION_DATE  = 
ORIGINATOR     = 

OBJECT_NAME    = STARLINK-35593
OBJECT_ID      = 2025-236X
CENTER_NAME    = EARTH
REF_FRAME      = TEME
TIME_SYSTEM    = UTC
MEAN_ELEMENT_THEORY = SGP/SGP4

EPOCH          = 2025-11-15T20:00:01.999008
MEAN_MOTION    = 15.49279500
ECCENTRICITY   = .0001833
INCLINATION    = 53.1594
RA_OF_ASC_NODE = 274.3686
ARG_OF_PERICENTER = 92.0828
MEAN_ANOMALY   = 120.0176

EPHEMERIS_TYPE = 0
CLASSIFICATION_TYPE = U
NORAD_CAT_ID   = 66107
ELEMENT_SET_NO = 999
REV_AT_EPOCH   = 555
BSTAR          = .87665E-3
MEAN_MOTION_DOT = .48561E-3
MEAN_MOTION_DDOT = 0

CCSDS_OMM_VERS = 2.0
CREATION_DATE  = 
ORIGINATOR     = 

OBJECT_NAME    = STARLINK-35590
OBJECT_ID      = 2025-236Y
CENTER_NAME    = EARTH
REF_FRAME      = TEME
TIME_SYSTEM    = UTC
MEAN_ELEMENT_THEORY = SGP/SGP4

EPOCH          = 2025-11-15T20:00:01.999008
MEAN_MOTION    = 15.49280458
ECCENTRICITY   = .0001596
INCLINATION    = 53.1594
RA_OF_ASC_NODE = 274.3603
ARG_OF_PERICENTER = 95.0459
MEAN_ANOMALY   = 120.8888

EPHEMERIS_TYPE = 0
CLASSIFICATION_TYPE = U
NORAD_CAT_ID   = 66108
ELEMENT_SET_NO = 999
REV_AT_EPOCH   = 549
BSTAR          = .77401E-3
MEAN_MOTION_DOT = .42792E-3
MEAN_MOTION_DDOT = 0

CCSDS_OMM_VERS = 2.0
CREATION_DATE  = 
ORIGINATOR     = 

OBJECT_NAME    = STARLINK-35545
OBJECT_ID      = 2025-236Z
CENTER_NAME    = EARTH
REF_FRAME      = TEME
TIME_SYSTEM    = UTC
MEAN_ELEMENT_THEORY = SGP/SGP4

EPOCH          = 2025-11-15T20:00:01.999008
MEAN_MOTION    = 15.49305839
ECCENTRICITY   = .0001671
INCLINATION    = 53.1593
RA_OF_ASC_NODE = 274.3643
ARG_OF_PERICENTER = 94.5547
MEAN_ANOMALY   = 119.4643

EPHEMERIS_TYPE = 0
CLASSIFICATION_TYPE = U
NORAD_CAT_ID   = 66109
ELEMENT_SET_NO = 999
REV_AT_EPOCH   = 555
BSTAR          = -.43802E-3
MEAN_MOTION_DOT = -.2473E-3
MEAN_MOTION_DDOT = 0

CCSDS_OMM_VERS = 2.0
CREATION_DATE  = 
ORIGINATOR     = 

OBJECT_NAME    = STARLINK-35427
OBJECT_ID      = 2025-236AA
CENTER_NAME    = EARTH
REF_FRAME      = TEME
TIME_SYSTEM    = UTC
MEAN_ELEMENT_THEORY = SGP/SGP4

EPOCH          = 2025-11-15T20:00:01.999008
MEAN_MOTION    = 15.49305385
ECCENTRICITY   = .0001688
INCLINATION    = 53.1593
RA_OF_ASC_NODE = 274.3558
ARG_OF_PERICENTER = 92.9268
MEAN_ANOMALY   = 124.9244

EPHEMERIS_TYPE = 0
CLASSIFICATION_TYPE = U
NORAD_CAT_ID   = 66110
ELEMENT_SET_NO = 999
REV_AT_EPOCH   = 555
BSTAR          = -.33045E-3
MEAN_MOTION_DOT = -.18781E-3
MEAN_MOTION_DDOT = 0

CCSDS_OMM_VERS = 2.0
CREATION_DATE  = 
ORIGINATOR     = 

OBJECT_NAME    = STARLINK-35574
OBJECT_ID      = 2025-236AB
CENTER_NAME    = EARTH
REF_FRAME      = TEME
TIME_SYSTEM    = UTC
MEAN_ELEMENT_THEORY = SGP/SGP4

EPOCH          = 2025-11-15T20:00:01.999008
MEAN_MOTION    = 15.49304034
ECCENTRICITY   = .0001702
INCLINATION    = 53.1592
RA_OF_ASC_NODE = 274.3522
ARG_OF_PERICENTER = 95.6472
MEAN_ANOMALY   = 124.1254

EPHEMERIS_TYPE = 0
CLASSIFICATION_TYPE = U
NORAD_CAT_ID   = 66111
ELEMENT_SET_NO = 999
REV_AT_EPOCH   = 549
BSTAR          = -.42869E-3
MEAN_MOTION_DOT = -.24214E-3
MEAN_MOTION_DDOT = 0

CCSDS_OMM_VERS = 2.0
CREATION_DATE  = 
ORIGINATOR     = 

OBJECT_NAME    = STARLINK-35531
OBJECT_ID      = 2025-236AC
CENTER_NAME    = EARTH
REF_FRAME      = TEME
TIME_SYSTEM    = UTC
MEAN_ELEMENT_THEORY = SGP/SGP4

EPOCH          = 2025-11-15T20:00:01.999008
MEAN_MOTION    = 15.49274356
ECCENTRICITY   = .0001751
INCLINATION    = 53.1591
RA_OF_ASC_NODE = 274.3444
ARG_OF_PERICENTER = 96.0954
MEAN_ANOMALY   = 127.5130

EPHEMERIS_TYPE = 0
CLASSIFICATION_TYPE = U
NORAD_CAT_ID   = 66112
ELEMENT_SET_NO = 999
REV_AT_EPOCH   = 555
BSTAR          = .98918E-3
MEAN_MOTION_DOT = .54887E-3
MEAN_MOTION_DDOT = 0

CCSDS_OMM_VERS = 2.0
CREATION_DATE  = 
ORIGINATOR     = 

OBJECT_NAME    = STARLINK-35491
OBJECT_ID      = 2025-236AD
CENTER_NAME    = EARTH
REF_FRAME      = TEME
TIME_SYSTEM    = UTC
MEAN_ELEMENT_THEORY = SGP/SGP4

EPOCH          = 2025-11-15T20:00:01.999008
MEAN_MOTION    = 15.49277037
ECCENTRICITY   = .0001681
INCLINATION    = 53.1593
RA_OF_ASC_NODE = 274.3483
ARG_OF_PERICENTER = 91.2824
MEAN_ANOMALY   = 130.4032

EPHEMERIS_TYPE = 0
CLASSIFICATION_TYPE = U
NORAD_CAT_ID   = 66113
ELEMENT_SET_NO = 999
REV_AT_EPOCH   = 555
BSTAR          = .91932E-3
MEAN_MOTION_DOT = .50957E-3
MEAN_MOTION_DDOT = 0

CCSDS_OMM_VERS = 2.0
CREATION_DATE  = 
ORIGINATOR     = 

OBJECT_NAME    = STARLINK-35496
OBJECT_ID      = 2025-237A
CENTER_NAME    = EARTH
REF_FRAME      = TEME
TIME_SYSTEM    = UTC
MEAN_ELEMENT_THEORY = SGP/SGP4

EPOCH          = 2025-11-15T20:00:01.999008
MEAN_MOTION    = 15.49334622
ECCENTRICITY   = .0001249
INCLINATION    = 53.1602
RA_OF_ASC_NODE = 214.4090
ARG_OF_PERICENTER = 93.7339
MEAN_ANOMALY   = 314.7123

EPHEMERIS_TYPE = 0
CLASSIFICATION_TYPE = U
NORAD_CAT_ID   = 66114
ELEMENT_SET_NO = 999
REV_AT_EPOCH   = 515
BSTAR          = -.14587E-2
MEAN_MOTION_DOT = -.80817E-3
MEAN_MOTION_DDOT = 0

CCSDS_OMM_VERS = 2.0
CREATION_DATE  = 
ORIGINATOR     = 

OBJECT_NAME    = STARLINK-35428
OBJECT_ID      = 2025-237B
CENTER_NAME    = EARTH
REF_FRAME      = TEME
TIME_SYSTEM    = UTC
MEAN_ELEMENT_THEORY = SGP/SGP4

EPOCH          = 2025-11-15T20:00:01.999008
MEAN_MOTION    = 15.44153009
ECCENTRICITY   = .0000897
INCLINATION    = 53.1604
RA_OF_ASC_NODE = 214.4268
ARG_OF_PERICENTER = 103.8240
MEAN_ANOMALY   = 295.8373

EPHEMERIS_TYPE = 0
CLASSIFICATION_TYPE = U
NORAD_CAT_ID   = 66115
ELEMENT_SET_NO = 999
REV_AT_EPOCH   = 515
BSTAR          = -.50327E-1
MEAN_MOTION_DOT = -.2078633E-1
MEAN_MOTION_DDOT = 0

CCSDS_OMM_VERS = 2.0
CREATION_DATE  = 
ORIGINATOR     = 

OBJECT_NAME    = STARLINK-35573
OBJECT_ID      = 2025-237C
CENTER_NAME    = EARTH
REF_FRAME      = TEME
TIME_SYSTEM    = UTC
MEAN_ELEMENT_THEORY = SGP/SGP4

EPOCH          = 2025-11-15T20:00:01.999008
MEAN_MOTION    = 15.49334283
ECCENTRICITY   = .0001261
INCLINATION    = 53.1602
RA_OF_ASC_NODE = 214.4015
ARG_OF_PERICENTER = 91.8836
MEAN_ANOMALY   = 320.3957

EPHEMERIS_TYPE = 0
CLASSIFICATION_TYPE = U
NORAD_CAT_ID   = 66116
ELEMENT_SET_NO = 999
REV_AT_EPOCH   = 515
BSTAR          = -.12685E-2
MEAN_MOTION_DOT = -.70429E-3
MEAN_MOTION_DDOT = 0

CCSDS_OMM_VERS = 2.0
CREATION_DATE  = 
ORIGINATOR     = 

OBJECT_NAME    = STARLINK-35572
OBJECT_ID      = 2025-237D
CENTER_NAME    = EARTH
REF_FRAME      = TEME
TIME_SYSTEM    = UTC
MEAN_ELEMENT_THEORY = SGP/SGP4

EPOCH          = 2025-11-15T20:00:01.999008
MEAN_MOTION    = 15.46742240
ECCENTRICITY   = .0000922
INCLINATION    = 53.1602
RA_OF_ASC_NODE = 214.3992
ARG_OF_PERICENTER = 107.8800
MEAN_ANOMALY   = 305.5530

EPHEMERIS_TYPE = 0
CLASSIFICATION_TYPE = U
NORAD_CAT_ID   = 66117
ELEMENT_SET_NO = 999
REV_AT_EPOCH   = 515
BSTAR          = -.46239E-1
MEAN_MOTION_DOT = -.2087512E-1
MEAN_MOTION_DDOT = 0

